KAZSAT-3                
1 39728U 14023B   21274.90894427  .00000056  00000-0  00000-0 0  9999
2 39728   0.0101 202.4339 0000450 267.2855 286.8549  1.00283215 25203
BREEZE-M R/B            
1 39729U 14023C   21274.65088326 -.00000170  00000-0  00000-0 0  9993
2 39729   5.9308  62.1911 0617888 167.3045 194.5417  0.92544719 25066
EUTELSAT 3B             
1 39773U 14030A   21275.07542060  .00000018  00000-0  00000+0 0  9996
2 39773   0.0630  14.0028 0005728 176.2261 211.0496  1.00272511 26989
MSG 1 DEB [COOLER COVER]
1 39998U 02040E   21272.05904167  .00000058  00000-0  00000-0 0  9993
2 39998  10.9482  25.7745 0012771 202.2019 154.9443  1.01182003   419
MSG 1 DEB [BAFFLE COVER]
1 39999U 02040F   21260.38883130 -.00000170  00000-0  00000+0 0  9998
2 39999  10.7681  25.1390 0098102  80.9588 330.7395  1.01969709 39129
USA 254                 
1 40100U 14043B   21264.75026000  .00000107  00000-0  00000+0 0  9999
2 40100   0.2370  98.5897 0001445 159.4220  68.6583  0.99580380  1405
ASIASAT 8 (AMOS-7)      
1 40107U 14046A   21274.78695875 -.00000036  00000-0  00000-0 0  9998
2 40107   0.0247 241.8908 0002251 299.4212 108.8722  1.00271287 84916
ASIASAT 6               
1 40141U 14052A   21273.51967554 -.00000364  00000-0  00000-0 0  9993
2 40141   0.0126 162.0791 0000772  38.5639 115.8420  1.00270299 25904
OPTUS 10                
1 40146U 14054A   21275.43419850 -.00000150  00000-0  00000+0 0  9996
2 40146   0.0295 204.4544 0004193 343.2720 135.9696  1.00271288 25885
MEASAT-3B               
1 40147U 14054B   21275.02125817 -.00000244  00000-0  00000+0 0  9993
2 40147   0.0399  39.4700 0000666 171.2032 259.4598  1.00271467 25935
CZ-3A DEB               
1 40155U 07003AP  21273.67328824  .00001130  00000-0  91296-2 0  9994
2 40155  23.8152 201.4867 7419740  61.3758 352.6718  2.00434481  2288
CZ-3A DEB               
1 40156U 07003AQ  21275.29412529 -.00000219  00000-0 -28137-2 0  9994
2 40156  27.0770   6.7678 7508945  66.0979 356.7914  1.84384242 77263
CZ-3B DEB               
1 40158U 10042K   21275.32316689 -.00000257  00000-0  00000+0 0  9994
2 40158  26.0513 286.3660 7309894  79.8330   0.0490  1.88729656981641
CZ-3B DEB               
1 40159U 10042L   21275.00355624  .00002398  00000-0  52605-2 0  9990
2 40159  27.0390 291.0366 7251635 296.0907   8.3535  2.25144033 79016
CZ-3B DEB               
1 40160U 10042M   21274.25532536 -.00000177  00000-0  00000-0 0  9991
2 40160  27.1930 314.6786 7264290  17.5582   5.7585  1.89862252 54549
CZ-3B DEB               
1 40161U 10042N   21274.57016833 -.00000943  00000-0 -29487-2 0  9998
2 40161  27.2751 136.3092 7395627 283.3898   8.6049  1.99251198 57208
CZ-3B DEB               
1 40162U 10042P   21270.46287831 -.00000184  00000-0  00000-0 0  9995
2 40162  27.0029 315.3562 7219119  20.8170 357.7889  1.92005443 55081
CZ-3B DEB               
1 40163U 10042Q   21275.23301056 -.00000533  00000-0 -23253-1 0  9997
2 40163  27.2671 211.6832 7330277 165.4841 358.2718  1.92488444 68273
CZ-3B DEB               
1 40164U 10042R   21275.34452262 -.00000187  00000-0  00000+0 0  9993
2 40164  26.9442 300.0972 7295636  39.9784 358.4468  1.89854074 64580
CZ-3B DEB               
1 40165U 10042S   21271.86003784  .00000010  00000-0  22919-1 0  9997
2 40165  27.4776 215.3440 7327974 152.0877 349.4622  1.92833433 70620
CZ-3B DEB               
1 40167U 10042U   21271.51063715 -.00000239  00000-0  00000+0 0  9990
2 40167  27.2212 328.7209 7162024 358.8747   0.3128  1.93608248 63184
CZ-3B DEB               
1 40169U 10042W   21274.62220368 -.00000075  00000-0  00000-0 0  9995
2 40169  26.4906 300.5089 7196941  50.6374  34.8126  1.93932665 64420
CZ-3C DEB               
1 40170U 10057Y   21275.44820398 -.00000433  00000-0 -91793-2 0  9993
2 40170  20.6954 338.5425 7142234 154.2898 291.2600  2.23596332 81958
CZ-3C DEB               
1 40176U 10057AE  21267.33164082 -.00000024  00000-0 -52323-2 0  9991
2 40176  20.1860 145.1077 7186795 213.6564 352.7847  2.07843610980961
CZ-3C DEB               
1 40177U 10057AF  21274.52406004  .00000195  00000-0  42472-2 0  9995
2 40177  17.7465 323.9081 7222237 258.5407  19.4516  2.19716890 68444
CZ-3B DEB               
1 40179U 11077C   21274.44695602 -.00000068  00000-0 -40929-2 0  9991
2 40179  26.2282  54.6155 7414257  64.8967 352.2328  1.91766242 55093
CZ-3B DEB               
1 40180U 11077D   21274.45211139  .00003362  00000-0  13325-1 0  9990
2 40180  24.3719 345.0917 7507021 224.8338  41.9575  1.93553350 59225
CZ-3B DEB               
1 40181U 11077E   21275.27728435  .00001326  00000-0  33101-2 0  9997
2 40181  22.8111 352.1152 7551818 254.7645  17.9516  1.89453289 57604
CZ-3B DEB               
1 40182U 11077F   21270.53167626 -.00000035  00000-0  17406-2 0  9998
2 40182  23.2036  37.9013 7560827 159.1685 267.2066  1.84622917 52855
CZ-3B DEB               
1 40183U 11077G   21274.70354843  .00000208  00000-0  34422-2 0  9999
2 40183  21.8962  49.1724 7584160 164.8011 247.6548  1.81964339 49626
CZ-3B DEB               
1 40184U 11077H   21271.25310896  .00000753  00000-0  22638-2 0  9998
2 40184  22.7628 359.9377 7575198 241.7579  24.7605  1.86762091 47270
CZ-3B DEB               
1 40185U 11077J   21275.31653337 -.00000278  00000-0 -18019-2 0  9992
2 40185  25.8888  17.8454 7482597 135.7424 316.9695  1.91474621 58418
CZ-3B DEB               
1 40186U 11077K   21273.47901670 -.00000102  00000-0  00000-0 0  9998
2 40186  25.1419 157.5668 7316547 247.1860 306.4114  1.88690117 66622
CZ-3B DEB               
1 40187U 11077L   21275.48084097 -.00000166  00000-0 -77757-2 0  9993
2 40187  26.1199  92.4482 7399835 350.5426   0.9299  1.90885457 61775
CZ-3B DEB               
1 40188U 11077M   21274.67148175 -.00000175  00000-0 -90165-2 0  9990
2 40188  26.8386  80.4680 7413367 359.2460   0.0190  1.91148464 61917
CZ-3B DEB               
1 40189U 11077N   21274.62814581  .00000110  00000-0 -30427-2 0  9990
2 40189  25.9828 108.3108 7398780 318.5305   4.4559  1.90336870 61579
CZ-3B DEB               
1 40191U 11077Q   21267.02665285 -.00000309  00000-0 -69526-5 0  9990
2 40191  26.9521  25.9925 7441819  97.5525 344.1913  1.93792655 46205
CZ-3B DEB               
1 40193U 11077S   21267.91942130 -.00000009  00000-0 -33085-3 0  9993
2 40193  25.5677 119.7959 7453772 304.8391   6.1228  1.86714821 43908
CZ-3C DEB               
1 40197U 12008G   21273.90186073 -.00000204  00000-0  00000-0 0  9998
2 40197  20.8160  49.9455 6969709 297.0688   9.7259  2.19809653 63141
CZ-3C DEB               
1 40198U 12008H   21274.89073564 -.00000046  00000-0 -88333-4 0  9992
2 40198  18.8964 252.9888 7289557 248.1017  24.3135  2.16569995 62141
CZ-3C DEB               
1 40199U 12008J   21270.40866062 -.00000359  00000-0 -22110-1 0  9994
2 40199  18.8305  14.4266 7214312  47.6774 353.9309  2.08839662 60145
CZ-3C DEB               
1 40200U 12008K   21275.48159137 -.00000133  00000-0  00000+0 0  9999
2 40200  21.1913  52.9812 6982033 284.1952  12.7758  2.19200559963263
CZ-3C DEB               
1 40201U 12008L   21274.69218928 -.00000254  00000-0 -91215-2 0  9992
2 40201  21.4644 295.8462 7067925 125.3884 321.9370  2.24583215 64538
CZ-3C DEB               
1 40206U 12008R   21265.20247110 -.00000051  00000-0  10279-2 0  9994
2 40206  17.6564 253.2533 7248049 276.7269  12.8001  2.18092460 56048
CZ-3C DEB               
1 40207U 12008S   21274.86769207 -.00000375  00000-0 -13410-2 0  9993
2 40207  18.8108 213.2547 7216643 324.8843   4.1225  2.22125254 67772
LUCH (OLYMP)            
1 40258U 14058A   21274.78087836  .00000022  00000-0  00000-0 0  9994
2 40258   0.0243 247.1555 0002682 359.0185 104.7627  1.00439782 23756
BREEZE-M R/B            
1 40259U 14058B   21274.86367429 -.00000140  00000-0  00000-0 0  9995
2 40259   5.9454  73.4390 0618400 161.9845 200.5623  0.91687306 23461
HIMAWARI-8              
1 40267U 14060A   21274.81574073 -.00000278  00000-0  00000-0 0  9999
2 40267   0.0149 193.9477 0001314  40.7295 210.4284  1.00271494 25513
IRNSS-1C                
1 40269U 14061A   21274.80422795 -.00000164  00000-0  00000-0 0  9998
2 40269   2.4560 141.9774 0020484   6.1064 235.2217  1.00274051 25445
INTELSAT 30 (IS-30)     
1 40271U 14062A   21274.98410324 -.00000154  00000-0  00000+0 0  9994
2 40271   0.0115 247.8448 0002038 184.3682 197.9553  1.00272591 25525
ARSAT 1                 
1 40272U 14062B   21275.47141941 -.00000263  00000-0  00000+0 0  9997
2 40272   0.0198 267.3033 0001625 286.4890 275.5400  1.00273090 25653
EXPRESS-AM6             
1 40277U 14064A   21273.69146793  .00000095  00000-0  00000-0 0  9999
2 40277   0.0368 285.4751 0001118 196.2700 189.8874  1.00275311 25414
BREEZE-M R/B            
1 40278U 14064B   21275.15314759 -.00000153  00000-0  00000+0 0  9997
2 40278   4.8369  78.0381 0597187 178.0881 182.4588  0.95223033 24177
MERIDIAN 7              
1 40296U 14069A   21275.47057022  .00000191  00000-0  00000+0 0  9995
2 40296  63.2684  64.3704 7085200 273.5977  16.0627  2.00621194 50741
FREGAT R/B              
1 40297U 14069B   21270.57661693  .00001331  00000-0  00000-0 0  9995
2 40297  63.4218  53.6454 7145836 275.3508  14.1397  2.00616836 50630
GSAT-16                 
1 40332U 14078A   21274.79873319  .00000082  00000-0  00000-0 0  9995
2 40332   0.0184 206.9822 0005201 268.9711 237.4103  1.00271110 24861
DIRECTV 14              
1 40333U 14078B   21275.50355209 -.00000126  00000-0  00000+0 0  9998
2 40333   0.0209 132.2279 0001061 246.1758  75.0821  1.00258776 25010
YAMAL 401               
1 40345U 14082A   21272.43710476 -.00000230  00000-0  00000-0 0  9993
2 40345   0.0138 191.5957 0000407  47.7924  16.3546  1.00272355 25143
ASTRA 2G                
1 40364U 14089A   21275.40049476  .00000147  00000-0  00000+0 0  9991
2 40364   0.0489  14.9702 0002007  82.6881  86.0758  1.00270027 24789
